start=new Date('2023-03-19T00:00:00.000Z').valueOf();
sats=[{"ARG_OF_PERICENTER":"68.9904","RA_OF_ASC_NODE":"150.3087","FILE":"3864479","EPOCH":"2023-03-18T22:07:32.965248","CLASSIFICATION_TYPE":"U","INCLINATION":"53.0516","MEAN_MOTION_DDOT":"0.0000000000000","DECAY_DATE":null,"MEAN_MOTION":"15.06425616","ECCENTRICITY":"0.00015460","SITE":"AFETR","OBJECT_TYPE":"PAYLOAD","OBJECT_ID":"2020-074BF","MEAN_ELEMENT_THEORY":"SGP4","COUNTRY_CODE":"US","GP_ID":"228401158","CENTER_NAME":"EARTH","SEMIMAJOR_AXIS":"6925.270","TLE_LINE1":"1 46792U 20074BF  23077.92190932  .00029479  00000-0  19883-2 0  9997","MEAN_ANOMALY":"291.1250","RCS_SIZE":"LARGE","LAUNCH_DATE":"2020-10-24","ELEMENT_SET_NO":"999","BSTAR":"0.00198830000000","EPHEMERIS_TYPE":"0","PERIOD":"95.591","REF_FRAME":"TEME","MEAN_MOTION_DOT":"0.00029479","APOAPSIS":"548.206","OBJECT_NAME":"STARLINK-1934","PERIAPSIS":"546.064","TIME_SYSTEM":"UTC","REV_AT_EPOCH":"13301","NORAD_CAT_ID":"46792","TLE_LINE2":"2 46792  53.0516 150.3087 0001546  68.9904 291.1250 15.06425616133010"},{"LAUNCH_DATE":"2020-10-24","RCS_SIZE":"LARGE","PERIOD":"95.591","REF_FRAME":"TEME","ELEMENT_SET_NO":"999","BSTAR":"0.00161160000000","EPHEMERIS_TYPE":"0","TIME_SYSTEM":"UTC","PERIAPSIS":"546.669","MEAN_MOTION_DOT":"0.00023820","OBJECT_NAME":"STARLINK-1941","APOAPSIS":"547.618","TLE_LINE2":"2 46793  53.0521 161.9669 0000685  78.1086 281.9980 15.06422793132815","NORAD_CAT_ID":"46793","REV_AT_EPOCH":"13281","CLASSIFICATION_TYPE":"U","EPOCH":"2023-03-18T13:15:29.114784","FILE":"3864479","RA_OF_ASC_NODE":"161.9669","ARG_OF_PERICENTER":"78.1086","MEAN_MOTION":"15.06422793","DECAY_DATE":null,"MEAN_MOTION_DDOT":"0.0000000000000","INCLINATION":"53.0521","OBJECT_ID":"2020-074BG","SITE":"AFETR","OBJECT_TYPE":"PAYLOAD","ECCENTRICITY":"0.00006850","TLE_LINE1":"1 46793U 20074BG  23077.55242031  .00023820  00000-0  16116-2 0  9995","MEAN_ANOMALY":"281.9980","GP_ID":"228401413","COUNTRY_CODE":"US","CENTER_NAME":"EARTH","SEMIMAJOR_AXIS":"6925.279","MEAN_ELEMENT_THEORY":"SGP4"},{"TLE_LINE1":"1 46794U 20074BH  23077.49344740  .00004294  00000-0  30696-3 0  9993","MEAN_ANOMALY":"266.6725","COUNTRY_CODE":"US","GP_ID":"228400167","CENTER_NAME":"EARTH","SEMIMAJOR_AXIS":"6925.343","MEAN_ELEMENT_THEORY":"SGP4","OBJECT_ID":"2020-074BH","SITE":"AFETR","OBJECT_TYPE":"PAYLOAD","ECCENTRICITY":"0.00014000","MEAN_MOTION":"15.06401658","DECAY_DATE":null,"MEAN_MOTION_DDOT":"0.0000000000000","INCLINATION":"53.0517","CLASSIFICATION_TYPE":"U","EPOCH":"2023-03-18T11:50:33.855360","FILE":"3864479","RA_OF_ASC_NODE":"162.2290","ARG_OF_PERICENTER":"93.4424","TLE_LINE2":"2 46794  53.0517 162.2290 0001400  93.4424 266.6725 15.06401658132811","NORAD_CAT_ID":"46794","REV_AT_EPOCH":"13281","TIME_SYSTEM":"UTC","PERIAPSIS":"546.239","MEAN_MOTION_DOT":"0.00004294","OBJECT_NAME":"STARLINK-1942","APOAPSIS":"548.178","PERIOD":"95.592","REF_FRAME":"TEME","ELEMENT_SET_NO":"999","EPHEMERIS_TYPE":"0","BSTAR":"0.00030696000000","LAUNCH_DATE":"2020-10-24","RCS_SIZE":"LARGE"},{"GP_ID":"228399915","CENTER_NAME":"EARTH","COUNTRY_CODE":"US","SEMIMAJOR_AXIS":"6925.291","TLE_LINE1":"1 46796U 20074BK  23077.46855694  .00024654  00000-0  16674-2 0  9998","MEAN_ANOMALY":"262.0739","MEAN_ELEMENT_THEORY":"SGP4","SITE":"AFETR","OBJECT_TYPE":"PAYLOAD","OBJECT_ID":"2020-074BK","ECCENTRICITY":"0.00017960","MEAN_MOTION":"15.06418683","INCLINATION":"53.0516","DECAY_DATE":null,"MEAN_MOTION_DDOT":"0.0000000000000","EPOCH":"2023-03-18T11:14:43.319616","FILE":"3864479","CLASSIFICATION_TYPE":"U","ARG_OF_PERICENTER":"98.0454","RA_OF_ASC_NODE":"152.3437","NORAD_CAT_ID":"46796","REV_AT_EPOCH":"13294","TLE_LINE2":"2 46796  53.0516 152.3437 0001796  98.0454 262.0739 15.06418683132942","PERIAPSIS":"545.913","TIME_SYSTEM":"UTC","MEAN_MOTION_DOT":"0.00024654","OBJECT_NAME":"STARLINK-1944","APOAPSIS":"548.400","ELEMENT_SET_NO":"999","EPHEMERIS_TYPE":"0","BSTAR":"0.00166740000000","PERIOD":"95.591","REF_FRAME":"TEME","LAUNCH_DATE":"2020-10-24","RCS_SIZE":"LARGE"},{"EPHEMERIS_TYPE":"0","BSTAR":"0.00100240000000","ELEMENT_SET_NO":"999","REF_FRAME":"TEME","PERIOD":"95.591","RCS_SIZE":"LARGE","LAUNCH_DATE":"2020-10-24","NORAD_CAT_ID":"46798","REV_AT_EPOCH":"13263","TLE_LINE2":"2 46798  53.0547 176.3043 0001292  95.9540 264.1596 15.06414346132632","APOAPSIS":"548.064","OBJECT_NAME":"STARLINK-1948","MEAN_MOTION_DOT":"0.00014686","PERIAPSIS":"546.275","TIME_SYSTEM":"UTC","INCLINATION":"53.0547","MEAN_MOTION_DDOT":"0.0000000000000","DECAY_DATE":null,"MEAN_MOTION":"15.06414346","ARG_OF_PERICENTER":"95.9540","RA_OF_ASC_NODE":"176.3043","EPOCH":"2023-03-18T16:47:05.650080","FILE":"3864479","CLASSIFICATION_TYPE":"U","MEAN_ELEMENT_THEORY":"SGP4","SEMIMAJOR_AXIS":"6925.305","CENTER_NAME":"EARTH","GP_ID":"228400658","COUNTRY_CODE":"US","MEAN_ANOMALY":"264.1596","TLE_LINE1":"1 46798U 20074BM  23077.69937095  .00014686  00000-0  10024-2 0  9998","ECCENTRICITY":"0.00012920","OBJECT_TYPE":"PAYLOAD","SITE":"AFETR","OBJECT_ID":"2020-074BM"},{"MEAN_MOTION":"15.06420227","INCLINATION":"53.0552","DECAY_DATE":null,"MEAN_MOTION_DDOT":"0.0000000000000","FILE":"3864479","EPOCH":"2023-03-18T14:05:52.875456","CLASSIFICATION_TYPE":"U","ARG_OF_PERICENTER":"74.1768","RA_OF_ASC_NODE":"141.8121","GP_ID":"228399947","CENTER_NAME":"EARTH","COUNTRY_CODE":"US","SEMIMAJOR_AXIS":"6925.287","TLE_LINE1":"1 47122U 20088A   23077.58741754  .00024834  00000-0  16793-2 0  9993","MEAN_ANOMALY":"285.9393","MEAN_ELEMENT_THEORY":"SGP4","SITE":"AFETR","OBJECT_TYPE":"PAYLOAD","OBJECT_ID":"2020-088A","ECCENTRICITY":"0.00015640","ELEMENT_SET_NO":"999","BSTAR":"0.00167930000000","EPHEMERIS_TYPE":"0","PERIOD":"95.591","REF_FRAME":"TEME","LAUNCH_DATE":"2020-11-25","RCS_SIZE":"LARGE","REV_AT_EPOCH":"12798","NORAD_CAT_ID":"47122","TLE_LINE2":"2 47122  53.0552 141.8121 0001564  74.1768 285.9393 15.06420227127980","PERIAPSIS":"546.068","TIME_SYSTEM":"UTC","MEAN_MOTION_DOT":"0.00024834","OBJECT_NAME":"STARLINK-1777","APOAPSIS":"548.235"},{"LAUNCH_DATE":"2020-11-25","RCS_SIZE":"LARGE","REF_FRAME":"TEME","PERIOD":"95.591","BSTAR":"0.00148260000000","EPHEMERIS_TYPE":"0","ELEMENT_SET_NO":"999","TIME_SYSTEM":"UTC","PERIAPSIS":"546.198","OBJECT_NAME":"STARLINK-1785","APOAPSIS":"548.100","MEAN_MOTION_DOT":"0.00021883","TLE_LINE2":"2 47124  53.0511 145.3904 0001373  96.6655 263.4490 15.06421066127966","NORAD_CAT_ID":"47124","REV_AT_EPOCH":"12796","CLASSIFICATION_TYPE":"U","FILE":"3864479","EPOCH":"2023-03-18T21:44:19.999392","RA_OF_ASC_NODE":"145.3904","ARG_OF_PERICENTER":"96.6655","MEAN_MOTION":"15.06421066","MEAN_MOTION_DDOT":"0.0000000000000","DECAY_DATE":null,"INCLINATION":"53.0511","OBJECT_ID":"2020-088C","OBJECT_TYPE":"PAYLOAD","SITE":"AFETR","ECCENTRICITY":"0.00013730","MEAN_ANOMALY":"263.4490","TLE_LINE1":"1 47124U 20088C   23077.90578703  .00021883  00000-0  14826-2 0  9999","SEMIMAJOR_AXIS":"6925.284","CENTER_NAME":"EARTH","GP_ID":"228400690","COUNTRY_CODE":"US","MEAN_ELEMENT_THEORY":"SGP4"},{"MEAN_MOTION":"15.06420678","INCLINATION":"53.0534","MEAN_MOTION_DDOT":"0.0000000000000","DECAY_DATE":null,"EPOCH":"2023-03-18T21:05:10.844736","FILE":"3864479","CLASSIFICATION_TYPE":"U","ARG_OF_PERICENTER":"96.7338","RA_OF_ASC_NODE":"140.5033","SEMIMAJOR_AXIS":"6925.285","COUNTRY_CODE":"US","GP_ID":"228400945","CENTER_NAME":"EARTH","TLE_LINE1":"1 47126U 20088E   23077.87859774  .00015339  00000-0  10458-2 0  9993","MEAN_ANOMALY":"263.3810","MEAN_ELEMENT_THEORY":"SGP4","OBJECT_TYPE":"PAYLOAD","SITE":"AFETR","OBJECT_ID":"2020-088E","ECCENTRICITY":"0.00014010","BSTAR":"0.00104580000000","EPHEMERIS_TYPE":"0","ELEMENT_SET_NO":"999","REF_FRAME":"TEME","PERIOD":"95.591","LAUNCH_DATE":"2020-11-25","RCS_SIZE":"LARGE","NORAD_CAT_ID":"47126","REV_AT_EPOCH":"12803","TLE_LINE2":"2 47126  53.0534 140.5033 0001401  96.7338 263.3810 15.06420678128036","PERIAPSIS":"546.180","TIME_SYSTEM":"UTC","APOAPSIS":"548.120","OBJECT_NAME":"STARLINK-1812","MEAN_MOTION_DOT":"0.00015339"},{"MEAN_MOTION":"15.06420262","INCLINATION":"53.0529","MEAN_MOTION_DDOT":"0.0000000000000","DECAY_DATE":null,"FILE":"3864479","EPOCH":"2023-03-18T20:04:08.208768","CLASSIFICATION_TYPE":"U","ARG_OF_PERICENTER":"87.1924","RA_OF_ASC_NODE":"120.6949","SEMIMAJOR_AXIS":"6925.286","COUNTRY_CODE":"US","GP_ID":"228399699","CENTER_NAME":"EARTH","TLE_LINE1":"1 47128U 20088G   23077.83620612  .00016088  00000-0  10959-2 0  9996","MEAN_ANOMALY":"272.9252","MEAN_ELEMENT_THEORY":"SGP4","OBJECT_TYPE":"PAYLOAD","SITE":"AFETR","OBJECT_ID":"2020-088G","ECCENTRICITY":"0.00016370","BSTAR":"0.00109590000000","EPHEMERIS_TYPE":"0","ELEMENT_SET_NO":"999","REF_FRAME":"TEME","PERIOD":"95.591","LAUNCH_DATE":"2020-11-25","RCS_SIZE":"LARGE","REV_AT_EPOCH":"12830","NORAD_CAT_ID":"47128","TLE_LINE2":"2 47128  53.0529 120.6949 0001637  87.1924 272.9252 15.06420262128308","PERIAPSIS":"546.018","TIME_SYSTEM":"UTC","APOAPSIS":"548.285","OBJECT_NAME":"STARLINK-1837","MEAN_MOTION_DOT":"0.00016088"},{"LAUNCH_DATE":"2020-11-25","RCS_SIZE":"LARGE","PERIOD":"95.590","REF_FRAME":"TEME","ELEMENT_SET_NO":"999","EPHEMERIS_TYPE":"0","BSTAR":"0.00084116000000","TIME_SYSTEM":"UTC","PERIAPSIS":"546.178","MEAN_MOTION_DOT":"0.00012280","APOAPSIS":"548.070","OBJECT_NAME":"STARLINK-1838","TLE_LINE2":"2 47129  53.0509 130.5649 0001366  93.8530 266.2615 15.06429353128174","REV_AT_EPOCH":"12817","NORAD_CAT_ID":"47129","CLASSIFICATION_TYPE":"U","EPOCH":"2023-03-18T20:45:16.038144","FILE":"3864479","RA_OF_ASC_NODE":"130.5649","ARG_OF_PERICENTER":"93.8530","MEAN_MOTION":"15.06429353","MEAN_MOTION_DDOT":"0.0000000000000","DECAY_DATE":null,"INCLINATION":"53.0509","OBJECT_ID":"2020-088H","SITE":"AFETR","OBJECT_TYPE":"PAYLOAD","ECCENTRICITY":"0.00013660","TLE_LINE1":"1 47129U 20088H   23077.86476896  .00012280  00000-0  84116-3 0  9990","MEAN_ANOMALY":"266.2615","CENTER_NAME":"EARTH","GP_ID":"228400448","COUNTRY_CODE":"US","SEMIMAJOR_AXIS":"6925.259","MEAN_ELEMENT_THEORY":"SGP4"}];
